OUFTI-1                 
1 41458U 16025C   21279.85032645  .00003370  00000-0  16154-3 0  9993
2 41458  98.1598  63.9107 0156954  44.1416 317.2212 15.09440289299279
E-ST@R-II               
1 41459U 16025D   21280.19398167  .00003944  00000-0  19069-3 0  9992
2 41459  98.1576  63.2080 0158802  46.2933 315.1290 15.08804755299263
AAUSAT 4                
1 41460U 16025E   21279.98477423  .00005334  00000-0  24301-3 0  9992
2 41460  98.1555  67.4468 0144832  28.8774 332.0293 15.12203880299566
AIST-2D (RS-48)         
1 41465U 16026B   21280.16015016  .00004687  00000-0  13182-3 0  9991
2 41465  97.0891 160.3782 0010322 342.0287 169.0207 15.36913415304580
SAMSAT-218D             
1 41466U 16026C   21279.98966611  .00045531  00000-0  53636-3 0  9997
2 41466  97.1454 188.8456 0002057 178.2557 237.9137 15.61261969306201
NUSAT-1 (FRESCO)        
1 41557U 16033B   21280.18777973  .00004546  00000-0  15856-3 0  9994
2 41557  97.3942  13.5409 0012430 192.0588 255.4026 15.30065056298614
NUSAT-2 (BATATA)        
1 41558U 16033C   21280.16711699  .00004696  00000-0  15344-3 0  9994
2 41558  97.4067  17.8703 0011416 184.1792 267.4753 15.32177945298826
CARTOSAT-2C             
1 41599U 16040A   21280.08817125  .00001250  00000-0  62332-4 0  9992
2 41599  97.3883 337.1037 0013705 353.0104  65.1458 15.19284032293462
SATHYABAMASAT           
1 41600U 16040B   21280.10270061  .00004973  00000-0  19028-3 0  9998
2 41600  97.2606 334.2969 0011078 306.5054  53.5164 15.26966729294180
LAPAN-A3                
1 41603U 16040E   21280.16956817  .00000596  00000-0  30562-4 0  9991
2 41603  97.2451 322.7921 0012692 337.7933 106.4729 15.20119283293550
BIROS                   
1 41604U 16040F   21279.72146157  .00001324  00000-0  59472-4 0  9991
2 41604  97.2504 328.3977 0010754 314.6202  45.4157 15.22812863293837
SWAYAM                  
1 41607U 16040J   21280.08972545  .00004607  00000-0  17862-3 0  9996
2 41607  97.2561 332.9467 0010841 307.5385  52.4868 15.26563431294070
BEESAT-4                
1 41619U 16040W   21279.61925761  .00003955  00000-0  15565-3 0  9997
2 41619  97.2575 332.5646 0008856 302.9582  57.0805 15.26172198281966
3CAT-2                  
1 41732U 16051B   21280.09192226  .00003857  00000-0  13747-3 0  9992
2 41732  97.3742 199.4259 0014191 107.9074 304.7160 15.29430089286563
PRATHAM                 
1 41783U 16059A   21279.66085176  .00000130  00000-0  34138-4 0  9991
2 41783  97.9525 325.8892 0032197 254.5129 105.2517 14.63172162268515
ALSAT 1N                
1 41789U 16059G   21280.08341860  .00000181  00000-0  42835-4 0  9999
2 41789  97.9558 330.2580 0027209 237.1877 122.6717 14.64462301268788
LISHUI 1-01             
1 41845U 16066E   21280.16861103  .00026863  00000-0  32320-2 0  9997
2 41845  98.7327  29.7111 0267902 136.8178 225.3945 14.61511094259706
CARTOSAT-2D             
1 41948U 17008A   21279.91766584  .00001372  00000-0  68231-4 0  9996
2 41948  97.4304 338.5256 0008214 126.7933 233.4012 15.19274623257305
NAYIF-1 (EO-88)         
1 42017U 17008BX  21279.72119853  .00004766  00000-0  17221-3 0  9996
2 42017  97.3057 345.3130 0007457  78.9802 281.2277 15.28917552258259
ZHUHAI-1 02 (CAS-4B)    
1 42759U 17034B   21280.19632884  .00001235  00000-0  87041-4 0  9991
2 42759  43.0184 286.6787 0007027 148.9972 304.5031 15.10419407238044
ZHUHAI-1 01 (CAS-4A)    
1 42761U 17034D   21280.18002619  .00001137  00000-0  81016-4 0  9997
2 42761  43.0190 285.7404 0007376 149.3258 299.9039 15.10505604238049
UCLSAT                  
1 42765U 17036A   21279.66785546  .00003672  00000-0  14780-3 0  9990
2 42765  97.2377 325.6704 0011908 138.0359 222.1794 15.25427580239129
NIUSAT                  
1 42766U 17036B   21279.68513547  .00002635  00000-0  11403-3 0  9990
2 42766  97.2389 321.7561 0016078 138.9093 221.3359 15.23165966238142
CARTOSAT-2E             
1 42767U 17036C   21280.14579823  .00001444  00000-0  71766-4 0  9999
2 42767  97.4932 338.3663 0008623 171.3079 272.9064 15.19241094237908
LITUANICASAT-2          
1 42768U 17036D   21279.69560409  .00006305  00000-0  23771-3 0  9991
2 42768  97.2458 326.8814 0014834 128.0552 232.2029 15.27302304238447
AALTO-1                 
1 42775U 17036L   21280.12430300  .00002273  00000-0  99213-4 0  9990
2 42775  97.2353 322.3668 0014653 136.2356 224.0045 15.23037115238199
URSA MAIOR              
1 42776U 17036M   21279.58068032  .00002372  00000-0  10251-3 0  9992
2 42776  97.2368 322.3755 0014404 137.2604 222.9756 15.23336534238131
COMPASS 2               
1 42777U 17036N   21279.65489799  .00004736  00000-0  18388-3 0  9993
2 42777  97.2443 326.8625 0012901 129.1698 231.0690 15.26477156238377
MAX VALIER SAT          
1 42778U 17036P   21279.67581530  .00002472  00000-0  10458-3 0  9997
2 42778  97.2436 324.5975 0012996 138.0901 222.1334 15.24032057238228
PEGASUS                 
1 42784U 17036V   21279.68021828  .00003180  00000-0  13016-3 0  9994
2 42784  97.2387 325.1449 0012472 140.1419 220.0738 15.24956642238309
NUDTSAT                 
1 42787U 17036Y   21279.92912225  .00006310  00000-0  23891-3 0  9994
2 42787  97.2428 328.1825 0011563 131.8043 228.4177 15.27200798238349
SUCHAI                  
1 42788U 17036Z   21279.68363383  .00003954  00000-0  15692-3 0  9994
2 42788  97.2396 326.2903 0012025 136.8877 223.3305 15.25857323238442
SKCUBE                  
1 42789U 17036AA  21279.66803573  .00003572  00000-0  14336-3 0  9993
2 42789  97.2389 325.9308 0011933 137.6963 222.5198 15.25543338238340
VZLUSAT-1               
1 42790U 17036AB  21279.66328437  .00004968  00000-0  18896-3 0  9991
2 42790  97.2422 327.9121 0011353 132.7112 227.5085 15.27155005238457
ROBUSTA-1B              
1 42792U 17036AD  21279.68410946  .00003807  00000-0  15138-3 0  9999
2 42792  97.2393 326.3717 0011538 137.1837 223.0303 15.25816891238389
D-SAT                   
1 42794U 17036AF  21280.05030780  .00000744  00000-0  69065-4 0  9994
2 42794  97.4591 294.0049 0124361 212.3413 147.0141 14.91706117233726
NORSAT 2                
1 42828U 17042D   21279.63612182  .00000813  00000-0  85305-4 0  9995
2 42828  97.4605 144.8158 0015320 129.1904 231.0679 14.91976233230317
TECHNOSAT               
1 42829U 17042E   21280.10267914  .00000520  00000-0  57205-4 0  9992
2 42829  97.4515 143.6140 0015245 130.1995 230.0562 14.91358237230323
2017-042F               
1 42830U 17042F   21280.13223708  .00001501  00000-0  14878-3 0  9998
2 42830  97.4647 146.7219 0015088 121.3288 238.9411 14.93126738230460
FLYING LAPTOP           
1 42831U 17042G   21279.80693087  .00000166  00000-0  21830-4 0  9995
2 42831  97.4535 143.5888 0015060 131.0745 229.1765 14.91361834230280
CORVUS BC2              
1 42846U 17042X   21279.87094114  .00000277  00000-0  32177-4 0  9993
2 42846  97.4547 146.0936 0010821 120.7156 239.5131 14.92374257230457
CORVUS BC1              
1 42847U 17042Y   21279.63320340  .00000449  00000-0  48835-4 0  9990
2 42847  97.4552 146.1278 0010512 120.4749 239.7511 14.92469896230421
SIMPL                   
1 42983U 98067NF  21279.99294638  .00020343  00000-0  17426-3 0  9992
2 42983  51.6362  51.7147 0002991  46.1596 313.9648 15.69403428224901
CZ-4C R/B               
1 43012U 17072C   21280.07946619  .00000112  00000-0  34510-4 0  9993
2 43012  98.7263 299.9224 0127683  12.4250 348.0044 14.56203811206984
RADFXSAT (FOX-1B)       
1 43017U 17073E   21279.71115077  .00001709  00000-0  13699-3 0  9991
2 43017  97.6940 179.2296 0252746 297.4944  60.0783 14.79815814209578
EAGLESAT 1              
1 43018U 17073F   21279.72881884  .00002807  00000-0  21703-3 0  9994
2 43018  97.6953 180.3350 0248784 293.4730  64.0512 14.81037950209511
ECAMSAT                 
1 43019U 98067NG  21279.66944671  .00100405  14847-4  32685-3 0  9996
2 43019  51.6388   5.1453 0004602   7.7541 352.3536 15.90632366307811
INS-1C                  
1 43116U 18004F   21280.09944980  .00003916  00000-0  15628-3 0  9998
2 43116  97.4057 353.5140 0009476 159.1745 200.9881 15.25719939207668
FLOCK 3P'-3             
1 43119U 18004J   21279.67418533  .00002303  00000-0  96080-4 0  9994
2 43119  97.4043 351.8064 0010182 169.9222 190.2222 15.24649140207527
FLOCK 3P'-2             
1 43120U 18004K   21280.13520587  .00002264  00000-0  95532-4 0  9999
2 43120  97.4050 352.0127 0010210 169.0992 191.0468 15.24277679207577
FLOCK 3P'-1             
1 43121U 18004L   21279.77131028  .00008938  00000-0  32583-3 0  9996
2 43121  97.4051 354.1211 0009102 162.0457 198.1106 15.28369231207615
FLOCK 3P'-4             
1 43122U 18004M   21279.73494520  .00002090  00000-0  88404-4 0  9999
2 43122  97.4062 351.7408 0009903 172.0586 188.0810 15.24294009207517
MICROMAS-2A             
1 43131U 18004W   21279.72663131  .00005821  00000-0  21369-3 0  9995
2 43131  97.4039 354.9569 0008775 159.9320 200.2266 15.28297769207758
PICSAT                  
1 43132U 18004X   21279.72085929  .00004025  00000-0  15718-3 0  9995
2 43132  97.4013 353.2529 0009269 166.4043 193.7447 15.26435592207655
CNUSAIL-1               
1 43133U 18004Y   21280.15345415  .00003043  00000-0  12361-3 0  9994
2 43133  97.3977 352.4705 0009440 167.4651 192.6824 15.25304046207642
2018-004Z               
1 43134U 18004Z   21280.12746459  .00003688  00000-0  14604-3 0  9992
2 43134  97.3998 353.2579 0009263 166.5314 193.6173 15.26023762207689
FOX-1D (AO-92)          
1 43137U 18004AC  21279.77943954  .00003222  00000-0  12902-3 0  9996
2 43137  97.3982 352.6514 0008973 168.3606 191.7841 15.25742978207630
STEP CUBE LAB           
1 43138U 18004AD  21279.75365878  .00005523  00000-0  20613-3 0  9992
2 43138  97.4037 354.7460 0008704 164.1953 195.9559 15.27774615207746
XIAOXIANG-2             
1 43155U 18008A   21280.19255859  .00002255  00000-0  13180-3 0  9992
2 43155  97.3914 341.7570 0015768 305.7146 138.8118 15.12779900204965
